GLOBALSTAR M045         
1 25676U 99019A   25091.96394964 -.00000057  00000+0  32368-3 0  9998
2 25676  51.9956 162.5224 0000708 105.3960  63.6978 12.27059612184034
GLOBALSTAR M019         
1 25677U 99019B   25091.86153972  .00000060  00000+0  15626-2 0  9990
2 25677  51.9871 287.8096 0001608 134.8757 328.8046 12.13875189175874
GLOBALSTAR M044         
1 25678U 99019C   25091.78160848 -.00000091  00000+0 -10015-3 0  9996
2 25678  51.9959 229.8328 0005855 248.3774 262.7545 11.90248096162224
GLOBALSTAR M042         
1 25679U 99019D   25091.74273741 -.00000103  00000+0 -10527-3 0  9992
2 25679  52.0003 266.7597 0003591 132.8970 240.3807 12.22081348175919
GLOBALSTAR M025         
1 25770U 99031A   25091.98219122 -.00000073  00000+0 -15416-3 0  9995
2 25770  51.9849 335.8077 0001984  39.6435 334.8053 11.22558335473155
GLOBALSTAR M049         
1 25771U 99031B   25091.94933244 -.00000095  00000+0 -10375-2 0  9992
2 25771  51.9915   6.8132 0002293 242.0698 117.9867 11.12113950108946
GLOBALSTAR M047         
1 25772U 99031C   25091.93989425 -.00000055  00000+0  41140-3 0  9994
2 25772  51.9874  11.0885 0016559 130.4702 229.7550 11.31926945462479
